[{"OBJECT_NAME":"STARLINK-5839","OBJECT_ID":"2023-088D","EPOCH":"2026-03-09T11:13:10.299648","MEAN_MOTION":15.02536837,"ECCENTRICITY":0.00012744,"INCLINATION":43.0035,"RA_OF_ASC_NODE":108.9107,"ARG_OF_PERICENTER":267.0676,"MEAN_ANOMALY":93.002,"EPHEMERIS_TYPE":0,"CLASSIFICATION_TYPE":"U","NORAD_CAT_ID":57051,"ELEMENT_SET_NO":999,"REV_AT_EPOCH":15033,"BSTAR":2.0696808e-5,"MEAN_MOTION_DOT":7.6e-7,"MEAN_MOTION_DDOT":0},{"OBJECT_NAME":"DELTA 2 R\/B(1)","OBJECT_ID":"1992-009B","EPOCH":"2026-03-09T12:17:31.364448","MEAN_MOTION":14.93413608,"ECCENTRICITY":0.00380129,"INCLINATION":19.9949,"RA_OF_ASC_NODE":116.2431,"ARG_OF_PERICENTER":331.0025,"MEAN_ANOMALY":28.8287,"EPHEMERIS_TYPE":0,"CLASSIFICATION_TYPE":"U","NORAD_CAT_ID":21891,"ELEMENT_SET_NO":999,"REV_AT_EPOCH":81986,"BSTAR":0.00029183889,"MEAN_MOTION_DOT":3.628e-5,"MEAN_MOTION_DDOT":0}]
